ORBCOMM FM06 [+]        
1 25118U 97084G   23337.59395637  .00002710  00000+0  86520-3 0  9993
2 25118  45.0130 175.2605 0001308 291.3616  88.1076 14.41780779360364
ORBCOMM FM07 [-]        
1 25119U 97084H   23336.67303877  .00003254  00000+0  10316-2 0  9990
2 25119  45.0123 180.1110 0002734 259.7161 100.3381 14.41716653360221
ORBCOMM FM03 [-]        
1 25158U 98007B   23337.23095720  .00002836  00000+0  10996-2 0  9996
2 25158 107.9741  63.7818 0047030 152.4886 207.8756 14.31556232343549
ORBCOMM FM04 [+]        
1 25159U 98007C   23337.17832906  .00002364  00000+0  92230-3 0  9993
2 25159 107.9724  66.5040 0042498 150.8182 209.5342 14.31816886343705
ORBCOMM FM17 [-]        
1 25413U 98046A   23337.17177405  .00001677  00000+0  66355-3 0  9990
2 25413  44.9959  24.4286 0004075 265.6115  94.4265 14.32584096322510
ORBCOMM FM18 [-]        
1 25414U 98046B   23337.32283103  .00003073  00000+0  11143-2 0  9997
2 25414  44.9948 314.0726 0005822 322.2672  37.7766 14.35165242323445
ORBCOMM FM19 [+]        
1 25415U 98046C   23336.94185730  .00002801  00000+0  10230-2 0  9996
2 25415  44.9957 317.0771 0004861 311.4354 144.6730 14.35020225323358
